NORAD_CAT_ID,OBJECT_NAME,OBJECT_TYPE,EPOCH,MEAN_MOTION,ECCENTRICITY,INCLINATION,RA_OF_ASC_NODE,ARG_OF_PERICENTER,MEAN_ANOMALY,BSTAR,MEAN_MOTION_DOT,MEAN_MOTION_DDOT,TLE_LINE0,TLE_LINE1,TLE_LINE2,SEMIMAJOR_AXIS,PERIOD,APOGEE,PERIGEE,DECAYED
49165.0,STARLINK-3052,PAYLOAD,2022-10-24 00:18:55,14.98337448,0.0003081,69.9996,162.4684,254.7046,105.3772,0.00021006,2.415e-05,0.0,0 STARLINK-3052,1 49165U 21082AM  22297.01314215  .00002415  00000-0  21006-3 0  9991,2 49165  69.9996 162.4684 0003081 254.7046 105.3772 14.98337448 62538,6950.17,96.107,574.1759999999998,569.894,0.0
49165.0,STARLINK-3052,PAYLOAD,2022-10-24 16:20:16,14.98328772,0.0003259999999999,69.9995,160.7851,252.3099,107.7704,7.135e-06,-8e-08,0.0,0 STARLINK-3052,1 49165U 21082AM  22297.68075155 -.00000008  00000-0  71350-5 0  9997,2 49165  69.9995 160.7851 0003260 252.3099 107.7704 14.98328772 62637,6950.196999999999,96.107,574.327,569.7959999999998,0.0
49165.0,STARLINK-3052,PAYLOAD,2022-10-25 00:20:57,14.98323217,0.0003302,69.9997,159.9438,256.2009,103.8782,-5.6433e-05,-7.66e-06,0.0,0 STARLINK-3052,1 49165U 21082AM  22298.01455699 -.00000766  00000-0 -56433-4 0  9996,2 49165  69.9997 159.9438 0003302 256.2009 103.8782 14.98323217 62699,6950.214,96.107,574.374,569.784,0.0
49165.0,STARLINK-3052,PAYLOAD,2022-10-25 08:21:38,14.9832411,0.0003323,69.9996,159.1017,253.9443,106.1351,-0.00010117,-1.3e-05,0.0,0 STARLINK-3052,1 49165U 21082AM  22298.34835764 -.00001300  00000-0 -10117-3 0  9990,2 49165  69.9996 159.1017 0003323 253.9443 106.1351 14.98324110 62738,6950.2109999999975,96.107,574.386,569.7669999999998,0.0
49165.0,STARLINK-3052,PAYLOAD,2022-10-25 17:58:25,14.98334064,0.0003685,70.0003,158.093,253.4959,106.5795,-4.577e-05,-6.39e-06,0.0,0 STARLINK-3052,1 49165U 21082AM  22298.74890761 -.00000639  00000-0 -45770-4 0  9990,2 49165  70.0003 158.0930 0003685 253.4959 106.5795 14.98334064 62803,6950.18,96.107,574.606,569.484,0.0
49165.0,STARLINK-3052,PAYLOAD,2022-10-25 19:34:33,14.98339668,0.0003137,70.0001,157.9244,253.4841,106.5974,2.507800000000001e-05,2.06e-06,0.0,0 STARLINK-3052,1 49165U 21082AM  22298.81566381  .00000206  00000-0  25078-4 0  9993,2 49165  70.0001 157.9244 0003137 253.4841 106.5974 14.98339668 62803,6950.163000000001,96.106,574.2080000000002,569.8480000000002,0.0
49165.0,STARLINK-3052,PAYLOAD,2022-10-26 13:12:02,14.98323701,0.0003346,69.9998,156.0724,251.1951,108.8846,0.00022183,2.554e-05,0.0,0 STARLINK-3052,1 49165U 21082AM  22299.55002955  .00002554  00000-0  22183-3 0  9998,2 49165  69.9998 156.0724 0003346 251.1951 108.8846 14.98323701 62913,6950.212,96.107,574.403,569.752,0.0
49165.0,STARLINK-3052,PAYLOAD,2022-10-26 19:36:34,14.98327511,0.0003276,69.9998,155.3998,252.2979,107.7822,0.00024583,2.841e-05,0.0,0 STARLINK-3052,1 49165U 21082AM  22299.81706827  .00002841  00000-0  24583-3 0  9991,2 49165  69.9998 155.3998 0003276 252.2979 107.7822 14.98327511 62951,6950.201,96.107,574.342,569.789,0.0
49165.0,STARLINK-3052,PAYLOAD,2022-10-27 00:24:58,14.98328022,0.0003262,69.9998,154.8948,252.5629,107.5174,0.00023919,2.762e-05,0.0,0 STARLINK-3052,1 49165U 21082AM  22300.01734883  .00002762  00000-0  23919-3 0  9993,2 49165  69.9998 154.8948 0003262 252.5629 107.5174 14.98328022 62989,6950.199000000001,96.107,574.331,569.797,0.0
49165.0,STARLINK-3052,PAYLOAD,2022-10-27 19:38:35,14.983406900000002,0.0003139,69.9999,152.8752,253.6518,106.4296,0.00010987,1.219e-05,0.0,0 STARLINK-3052,1 49165U 21082AM  22300.81846315  .00001219  00000-0  10987-3 0  9992,2 49165  69.9999 152.8752 0003139 253.6518 106.4296 14.98340690 63117,6950.16,96.106,574.206,569.8430000000002,0.0
49165.0,STARLINK-3052,PAYLOAD,2022-10-28 00:26:59,14.98349198,0.000318,69.9996,152.3699,244.0251,116.0581,-0.00011353,-1.448e-05,0.0,0 STARLINK-3052,1 49165U 21082AM  22301.01873915 -.00001448  00000-0 -11353-3 0  9995,2 49165  69.9996 152.3699 0003180 244.0251 116.0581 14.98349198 63131,6950.134,96.106,574.2090000000002,569.788,0.0
49165.0,STARLINK-3052,PAYLOAD,2022-10-28 18:04:28,14.98332894,0.0003233,69.9997,150.5185,251.3684,108.7124,5.9059e-05,6.12e-06,0.0,0 STARLINK-3052,1 49165U 21082AM  22301.75310615  .00000612  00000-0  59059-4 0  9995,2 49165  69.9997 150.5185 0003233 251.3684 108.7124 14.98332894 63240,6950.184,96.107,574.2959999999998,569.802,0.0
49165.0,STARLINK-3052,PAYLOAD,2022-10-29 00:29:00,14.98330069,0.0003288999999999,69.9994,149.845,252.043,108.0371,-1.5744e-06,-1.12e-06,0.0,0 STARLINK-3052,1 49165U 21082AM  22302.02014831 -.00000112  00000-0 -15744-5 0  9998,2 49165  69.9994 149.8450 0003289 252.0430 108.0371 14.98330069 63284,6950.193,96.107,574.344,569.7719999999998,0.0
49165.0,STARLINK-3052,PAYLOAD,2022-10-29 19:42:37,14.98333742,0.0003298,69.9995,147.8254,250.195,109.8854,8.5641e-05,9.29e-06,0.0,0 STARLINK-3052,1 49165U 21082AM  22302.82126396  .00000929  00000-0  85641-4 0  9992,2 49165  69.9995 147.8254 0003298 250.1950 109.8854 14.98333742 63412,6950.181,96.107,574.3380000000002,569.754,0.0
49165.0,STARLINK-3052,PAYLOAD,2022-10-29 22:54:53,14.98336703,0.0003227,69.9995,147.4884,252.2365,107.8442,0.00012237,1.368e-05,0.0,0 STARLINK-3052,1 49165U 21082AM  22302.95478127  .00001368  00000-0  12237-3 0  9996,2 49165  69.9995 147.4884 0003227 252.2365 107.8442 14.98336703 63424,6950.172,96.107,574.28,569.794,0.0
49165.0,STARLINK-3052,PAYLOAD,2022-10-30 21:20:46,14.98323212,0.0003186,69.9994,145.1315,250.2497,109.8319,7.5047e-05,8.02e-06,0.0,0 STARLINK-3052,1 49165U 21082AM  22303.88943218  .00000802  00000-0  75047-4 0  9998,2 49165  69.9994 145.1315 0003186 250.2497 109.8319 14.98323212 63566,6950.214,96.107,574.293,569.865,0.0
49165.0,STARLINK-3052,PAYLOAD,2022-10-31 00:33:03,14.98322098,0.0003205,69.9992,144.7947,250.5996,109.4817,5.2436e-05,5.33e-06,0.0,0 STARLINK-3052,1 49165U 21082AM  22304.02295368  .00000533  00000-0  52436-4 0  9999,2 49165  69.9992 144.7947 0003205 250.5996 109.4817 14.98322098 63581,6950.217,96.108,574.31,569.855,0.0
49165.0,STARLINK-3052,PAYLOAD,2022-10-31 13:22:08,14.98319937,0.0003098,70.0002,143.4478,246.8927,113.1905,-6.1308e-05,-8.24e-06,0.0,0 STARLINK-3052,1 49165U 21082AM  22304.55704108 -.00000824  00000-0 -61308-4 0  9997,2 49165  70.0002 143.4478 0003098 246.8927 113.1905 14.98319937 63660,6950.224,96.108,574.242,569.936,0.0
49165.0,STARLINK-3052,PAYLOAD,2022-11-01 00:35:05,14.98318511,0.0003165,69.9996,142.2693,249.9248,110.1571,-7.6189e-05,-1.002e-05,0.0,0 STARLINK-3052,1 49165U 21082AM  22305.02436548 -.00001002  00000-0 -76189-4 0  9992,2 49165  69.9996 142.2693 0003165 249.9248 110.1571 14.98318511 63731,6950.228,96.108,574.293,569.894,0.0
49165.0,STARLINK-3052,PAYLOAD,2022-11-01 19:48:42,14.98313716,0.0003094,70.0,140.2495,252.3236,107.7586,9.7305e-05,1.068e-05,0.0,0 STARLINK-3052,1 49165U 21082AM  22305.82549164  .00001068  00000-0  97305-4 0  9992,2 49165  70.0000 140.2495 0003094 252.3236 107.7586 14.98313716 63857,6950.243,96.108,574.259,569.9580000000002,0.0
49165.0,STARLINK-3052,PAYLOAD,2022-11-01 23:00:58,14.98313988,0.0003088,69.9999,139.9129,252.3938,107.6884,9.7632e-05,1.072e-05,0.0,0 STARLINK-3052,1 49165U 21082AM  22305.95901311  .00001072  00000-0  97632-4 0  9990,2 49165  69.9999 139.9129 0003088 252.3938 107.6884 14.98313988 63886,6950.2419999999975,96.108,574.254,569.961,0.0
49165.0,STARLINK-3052,PAYLOAD,2022-11-02 11:50:03,14.98315762,0.0003103999999999,69.9982,138.5666,251.58900000000003,108.4932,0.00012556,1.405e-05,0.0,0 STARLINK-3052,1 49165U 21082AM  22306.49309740  .00001405  00000-0  12556-3 0  9999,2 49165  69.9982 138.5666 0003104 251.5890 108.4932 14.98315762 63959,6950.236999999999,96.108,574.259,569.945,0.0
49165.0,STARLINK-3052,PAYLOAD,2022-11-02 19:50:44,14.98317628,0.0003099,69.9971,137.725,250.8126,109.2698,0.00014815,1.675e-05,0.0,0 STARLINK-3052,1 49165U 21082AM  22306.82689897  .00001675  00000-0  14815-3 0  9999,2 49165  69.9971 137.7250 0003099 250.8126 109.2698 14.98317628 64002,6950.231,96.108,574.25,569.942,0.0
49165.0,STARLINK-3052,PAYLOAD,2022-11-02 23:03:00,14.98319546,0.0003092,69.9983,137.3884,251.3931,108.6892,0.00016465,1.872e-05,0.0,0 STARLINK-3052,1 49165U 21082AM  22306.96041893  .00001872  00000-0  16465-3 0  9994,2 49165  69.9983 137.3884 0003092 251.3931 108.6892 14.98319546 64030,6950.225,96.108,574.239,569.941,0.0
49165.0,STARLINK-3052,PAYLOAD,2022-11-03 11:52:04,14.9832274,0.0003068,69.9982,136.0419,251.1545,108.9281,0.00015822,1.795e-05,0.0,0 STARLINK-3052,1 49165U 21082AM  22307.49450137  .00001795  00000-0  15822-3 0  9998,2 49165  69.9982 136.0419 0003068 251.1545 108.9281 14.98322740 64104,6950.215,96.107,574.2130000000002,569.948,0.0
49165.0,STARLINK-3052,PAYLOAD,2022-11-03 23:05:01,14.98327604,0.000305,69.9981,134.8637,250.749,109.3339,0.00016432,1.868e-05,0.0,0 STARLINK-3052,1 49165U 21082AM  22307.96182030  .00001868  00000-0  16432-3 0  9993,2 49165  69.9981 134.8637 0003050 250.7490 109.3339 14.98327604 64187,6950.2,96.107,574.185,569.945,0.0
49165.0,STARLINK-3052,PAYLOAD,2022-11-04 11:54:05,14.98331843,0.0003055,69.9981,133.517,250.4711,109.6118,0.00017109,1.949e-05,0.0,0 STARLINK-3052,1 49165U 21082AM  22308.49589955  .00001949  00000-0  17109-3 0  9991,2 49165  69.9981 133.5170 0003055 250.4711 109.6118 14.98331843 64259,6950.187,96.107,574.175,569.929,0.0
49165.0,STARLINK-3052,PAYLOAD,2022-11-04 23:07:01,14.98335401,0.0003032,69.998,132.3387,250.416,109.6672,0.00019541,2.24e-05,0.0,0 STARLINK-3052,1 49165U 21082AM  22308.96321682  .00002240  00000-0  19541-3 0  9991,2 49165  69.9980 132.3387 0003032 250.4160 109.6672 14.98335401 64336,6950.176,96.107,574.148,569.934,0.0
49165.0,STARLINK-3052,PAYLOAD,2022-11-05 11:56:06,14.98338849,0.0003032,69.9985,130.9915,247.6443,112.4395,0.00016357,1.86e-05,0.0,0 STARLINK-3052,1 49165U 21082AM  22309.49729383  .00001860  00000-0  16357-3 0  9999,2 49165  69.9985 130.9915 0003032 247.6443 112.4395 14.98338849 64405,6950.166,96.106,574.138,569.923,0.0
